CTC1_L_00668007-03
1 10062U 22068HM  26075.70040509  .00000000  00000+0  00000-0 0  9991
2 10062  70.0000 180.0000 0000000   0.0000 144.0000  2.02645322    13
CTC1_L_00668007-04
1 10063U 24557BI  26075.70040509  .00000000  00000+0  00000-0 0  9997
2 10063  70.0000 180.0000 0000000   0.0000 180.0000  2.02645322    14
CTC1_L_00668007-05
1 10064U 23209BB  26075.70040509  .00000000  00000+0  00000-0 0  9991
2 10064  70.0000 180.0000 0000000   0.0000 216.0000  2.02645322    15
CTC1_L_00668007-06
1 10065U 26023OL  26075.70040509  .00000000  00000+0  00000-0 0  9999
2 10065  70.0000 180.0000 0000000   0.0000 252.0000  2.02645322    16
CTC1_L_00668007-07
1 10066U 24429RG  26075.70040509  .00000000  00000+0  00000-0 0  9998
2 10066  70.0000 180.0000 0000000   0.0000 288.0000  2.02645322    16
CTC1_L_00668007-08
1 10067U 23842DP  26075.70040509  .00000000  00000+0  00000-0 0  9997
2 10067  70.0000 180.0000 0000000   0.0000 324.0000  2.02645322    18
CTC1_L_00668007-09
1 10068U 23128ZQ  26075.70040509  .00000000  00000+0  00000-0 0  9995
2 10068  70.0000 180.0000 0000000   0.0000   0.0000  2.02645322    10
CTC1_L_00668007-10
1 10069U 25617ZT  26075.70040509  .00000000  00000+0  00000-0 0  9991
2 10069  70.0000 180.0000 0000000   0.0000  36.0000  2.02645322    10
CTC1_L_00668008-01
1 10070U 23220ZN  26075.70040509  .00000000  00000+0  00000-0 0  9991
2 10070  70.0000 210.0000 0000000   0.0000  84.0000  2.02645322    19
CTC1_L_00668008-02
1 10071U 22365BP  26075.70040509  .00000000  00000+0  00000-0 0  9991
2 10071  70.0000 210.0000 0000000   0.0000 120.0000  2.02645322    11
CTC1_L_00668008-03
1 10072U 26484BN  26075.70040509  .00000000  00000+0  00000-0 0  9998
2 10072  70.0000 210.0000 0000000   0.0000 156.0000  2.02645322    11
CTC1_L_00668008-04
1 10073U 25959FH  26075.70040509  .00000000  00000+0  00000-0 0  9995
2 10073  70.0000 210.0000 0000000   0.0000 192.0000  2.02645322    12
CTC1_L_00668008-05
1 10074U 25772ZT  26075.70040509  .00000000  00000+0  00000-0 0  9999
2 10074  70.0000 210.0000 0000000   0.0000 228.0000  2.02645322    13
CTC1_L_00668008-06
1 10075U 24767EQ  26075.70040509  .00000000  00000+0  00000-0 0  9993
2 10075  70.0000 210.0000 0000000   0.0000 264.0000  2.02645322    14
CTC1_L_00668008-07
1 10076U 26307QE  26075.70040509  .00000000  00000+0  00000-0 0  9996
2 10076  70.0000 210.0000 0000000   0.0000 300.0000  2.02645322    16
CTC1_L_00668008-08
1 10077U 24095TN  26075.70040509  .00000000  00000+0  00000-0 0  9999
2 10077  70.0000 210.0000 0000000   0.0000 336.0000  2.02645322    16
CTC1_L_00668008-09
1 10078U 22641YJ  26075.70040509  .00000000  00000+0  00000-0 0  9995
2 10078  70.0000 210.0000 0000000   0.0000  12.0000  2.02645322    18
CTC1_L_00668008-10
1 10079U 24060JZ  26075.70040509  .00000000  00000+0  00000-0 0  9993
2 10079  70.0000 210.0000 0000000   0.0000  48.0000  2.02645322    18
CTC1_L_00668009-01
1 10080U 22478AH  26075.70040509  .00000000  00000+0  00000-0 0  9996
2 10080  70.0000 240.0000 0000000   0.0000  96.0000  2.02645322    16
CTC1_L_00668009-02
1 10081U 23633AA  26075.70040509  .00000000  00000+0  00000-0 0  9991
2 10081  70.0000 240.0000 0000000   0.0000 132.0000  2.02645322    18
CTC1_L_00668009-03
1 10082U 23377AW  26075.70040509  .00000000  00000+0  00000-0 0  9997
2 10082  70.0000 240.0000 0000000   0.0000 168.0000  2.02645322    18
CTC1_L_00668009-04
1 10083U 25506EG  26075.70040509  .00000000  00000+0  00000-0 0  9994
2 10083  70.0000 240.0000 0000000   0.0000 204.0000  2.02645322    10
CTC1_L_00668009-05
1 10084U 22478PD  26075.70040509  .00000000  00000+0  00000-0 0  9990
2 10084  70.0000 240.0000 0000000   0.0000 240.0000  2.02645322    11
CTC1_L_00668009-06
1 10085U 25089BT  26075.70040509  .00000000  00000+0  00000-0 0  9992
2 10085  70.0000 240.0000 0000000   0.0000 276.0000  2.02645322    11
CTC1_L_00668009-07
1 10086U 24136LC  26075.70040509  .00000000  00000+0  00000-0 0  9995
2 10086  70.0000 240.0000 0000000   0.0000 312.0000  2.02645322    13
CTC1_L_00668009-08
1 10087U 23085DR  26075.70040509  .00000000  00000+0  00000-0 0  9998
2 10087  70.0000 240.0000 0000000   0.0000 348.0000  2.02645322    13
CTC1_L_00668009-09
1 10088U 26520KH  26075.70040509  .00000000  00000+0  00000-0 0  9996
2 10088  70.0000 240.0000 0000000   0.0000  24.0000  2.02645322    15
CTC1_L_00668009-10
1 10089U 26427XM  26075.70040509  .00000000  00000+0  00000-0 0  9993
2 10089  70.0000 240.0000 0000000   0.0000  60.0000  2.02645322    16
CTC1_L_00668010-01
1 10090U 22216GQ  26075.70040509  .00000000  00000+0  00000-0 0  9997
2 10090  70.0000 270.0000 0000000   0.0000 108.0000  2.02645322    14
CTC1_L_00668010-02
1 10091U 24014DI  26075.70040509  .00000000  00000+0  00000-0 0  9996
2 10091  70.0000 270.0000 0000000   0.0000 144.0000  2.02645322    15
CTC1_L_00668010-03
1 10092U 26381SM  26075.70040509  .00000000  00000+0  00000-0 0  9996
2 10092  70.0000 270.0000 0000000   0.0000 180.0000  2.02645322    16
CTC1_L_00668010-04
1 10093U 26210QZ  26075.70040509  .00000000  00000+0  00000-0 0  9998
2 10093  70.0000 270.0000 0000000   0.0000 216.0000  2.02645322    17
CTC1_L_00668010-05
1 10094U 23759RY  26075.70040509  .00000000  00000+0  00000-0 0  9994
2 10094  70.0000 270.0000 0000000   0.0000 252.0000  2.02645322    18
CTC1_L_00668010-06
1 10095U 26360ZG  26075.70040509  .00000000  00000+0  00000-0 0  9996
2 10095  70.0000 270.0000 0000000   0.0000 288.0000  2.02645322    18
CTC1_L_00668010-07
1 10096U 25881ML  26075.70040509  .00000000  00000+0  00000-0 0  9994
2 10096  70.0000 270.0000 0000000   0.0000 324.0000  2.02645322    10
CTC1_L_00668010-08
1 10097U 22823PX  26075.70040509  .00000000  00000+0  00000-0 0  9998
2 10097  70.0000 270.0000 0000000   0.0000   0.0000  2.02645322    12
CTC1_L_00668010-09
1 10098U 26182SK  26075.70040509  .00000000  00000+0  00000-0 0  9991
2 10098  70.0000 270.0000 0000000   0.0000  36.0000  2.02645322    12
CTC1_L_00668010-10
1 10099U 23683JY  26075.70040509  .00000000  00000+0  00000-0 0  9995
2 10099  70.0000 270.0000 0000000   0.0000  72.0000  2.02645322    13
CTC1_L_00668011-01
1 10100U 26160XE  26075.70040509  .00000000  00000+0  00000-0 0  9991
2 10100  70.0000 300.0000 0000000   0.0000 120.0000  2.02645322    14
CTC1_L_00668011-02
1 10101U 25211LF  26075.70040509  .00000000  00000+0  00000-0 0  9998
2 10101  70.0000 300.0000 0000000   0.0000 156.0000  2.02645322    14
CTC1_L_00668011-03
1 10102U 23342HT  26075.70040509  .00000000  00000+0  00000-0 0  9992
2 10102  70.0000 300.0000 0000000   0.0000 192.0000  2.02645322    15
CTC1_L_00668011-04
1 10103U 25771OE  26075.70040509  .00000000  00000+0  00000-0 0  9991
2 10103  70.0000 300.0000 0000000   0.0000 228.0000  2.02645322    16
CTC1_L_00668011-05
1 10104U 22100YZ  26075.70040509  .00000000  00000+0  00000-0 0  9995
2 10104  70.0000 300.0000 0000000   0.0000 264.0000  2.02645322    17
CTC1_L_00668011-06
1 10105U 23071QN  26075.70040509  .00000000  00000+0  00000-0 0  9994
2 10105  70.0000 300.0000 0000000   0.0000 300.0000  2.02645322    19
CTC1_L_00668011-07
1 10106U 22485KS  26075.70040509  .00000000  00000+0  00000-0 0  9993
2 10106  70.0000 300.0000 0000000   0.0000 336.0000  2.02645322    19
CTC1_L_00668011-08
1 10107U 22154TM  26075.70040509  .00000000  00000+0  00000-0 0  9997
2 10107  70.0000 300.0000 0000000   0.0000  12.0000  2.02645322    11
CTC1_L_00668011-09
1 10108U 22084UO  26075.70040509  .00000000  00000+0  00000-0 0  9990
2 10108  70.0000 300.0000 0000000   0.0000  48.0000  2.02645322    11
CTC1_L_00668011-10
1 10109U 26796TZ  26075.70040509  .00000000  00000+0  00000-0 0  9995
2 10109  70.0000 300.0000 0000000   0.0000  84.0000  2.02645322    12
CTC1_L_00668012-01
1 10110U 25287VH  26075.70040509  .00000000  00000+0  00000-0 0  9991
2 10110  70.0000 330.0000 0000000   0.0000 132.0000  2.02645322    11
CTC1_L_00668012-02
1 10111U 26830HI  26075.70040509  .00000000  00000+0  00000-0 0  9997
2 10111  70.0000 330.0000 0000000   0.0000 168.0000  2.02645322    11
CTC1_L_00668012-03
1 10112U 26806LG  26075.70040509  .00000000  00000+0  00000-0 0  9991
2 10112  70.0000 330.0000 0000000   0.0000 204.0000  2.02645322    13
CTC1_L_00668012-04
1 10113U 25539HL  26075.70040509  .00000000  00000+0  00000-0 0  9994
2 10113  70.0000 330.0000 0000000   0.0000 240.0000  2.02645322    14
CTC1_L_00668012-05
1 10114U 23413IT  26075.70040509  .00000000  00000+0  00000-0 0  9994
2 10114  70.0000 330.0000 0000000   0.0000 276.0000  2.02645322    14
CTC1_L_00668012-06
1 10115U 22099ZE  26075.70040509  .00000000  00000+0  00000-0 0  9994
2 10115  70.0000 330.0000 0000000   0.0000 312.0000  2.02645322    16
CTC1_L_00668012-07
1 10116U 24120UW  26075.70040509  .00000000  00000+0  00000-0 0  9992
2 10116  70.0000 330.0000 0000000   0.0000 348.0000  2.02645322    16
CTC1_L_00668012-08
1 10117U 26553XB  26075.70040509  .00000000  00000+0  00000-0 0  9995
2 10117  70.0000 330.0000 0000000   0.0000  24.0000  2.02645322    18
CTC1_L_00668012-09
1 10118U 25868UN  26075.70040509  .00000000  00000+0  00000-0 0  9994
2 10118  70.0000 330.0000 0000000   0.0000  60.0000  2.02645322    19
CTC1_L_00668012-10
1 10119U 26110QX  26075.70040509  .00000000  00000+0  00000-0 0  9996
2 10119  70.0000 330.0000 0000000   0.0000  96.0000  2.02645322    19
